[{"OBJECT_NAME":"ONEWEB-0194","OBJECT_ID":"2021-031AD","EPOCH":"2026-03-09T17:16:48.460512","MEAN_MOTION":13.14502336,"ECCENTRICITY":0.00015189,"INCLINATION":87.8987,"RA_OF_ASC_NODE":309.5552,"ARG_OF_PERICENTER":89.5835,"MEAN_ANOMALY":270.5469,"EPHEMERIS_TYPE":0,"CLASSIFICATION_TYPE":"U","NORAD_CAT_ID":48237,"ELEMENT_SET_NO":999,"REV_AT_EPOCH":23529,"BSTAR":0.00037642329,"MEAN_MOTION_DOT":1.52e-6,"MEAN_MOTION_DDOT":0},{"OBJECT_NAME":"BREEZE-M DEB","OBJECT_ID":"2006-006BE","EPOCH":"2026-03-08T19:58:31.063008","MEAN_MOTION":11.37648375,"ECCENTRICITY":0.15398811,"INCLINATION":50.3548,"RA_OF_ASC_NODE":229.8803,"ARG_OF_PERICENTER":201.1048,"MEAN_ANOMALY":151.8873,"EPHEMERIS_TYPE":0,"CLASSIFICATION_TYPE":"U","NORAD_CAT_ID":34239,"ELEMENT_SET_NO":999,"REV_AT_EPOCH":2862,"BSTAR":0.14864738,"MEAN_MOTION_DOT":0.00108152,"MEAN_MOTION_DDOT":0}]
